SL-14 R/B               
1 18749U 88001B   25330.94826051  .00000635  00000+0  70793-4 0  9997
2 18749  82.5118 292.0015 0017095 214.0150 145.9971 14.85398034 26773
COSMOS 1933             
1 18958U 88020A   25330.98818174  .00004614  00000+0  23253-3 0  9990
2 18958  82.5142 352.4413 0004366 174.7193 185.4087 15.16926024 34655
SL-3 R/B                
1 19046U 88032B   25331.11348806  .00005935  00000+0  28867-3 0  9991
2 19046  97.5072 309.9461 0025189 228.9760 130.9296 15.18507534 36539
SL-16 R/B               
1 19120U 88039B   25330.32890901  .00000033  00000+0  38226-4 0  9996
2 19120  71.0145 287.0970 0020356 143.6429 216.6084 14.19592811943713
COSMOS 1953             
1 19210U 88050A   25330.84399778  .00006666  00000+0  25231-3 0  9991
2 19210  82.5085 261.5269 0013558 119.6716 240.5874 15.26661590 22080
SL-8 R/B                
1 19257U 88053B   25330.42060626  .00000285  00000+0  10079-3 0  9991
2 19257  74.0469 302.7968 0019457 152.5611 324.9684 14.38844398961743
COSMOS 1975             
1 19573U 88093A   25331.17757671  .00010510  00000+0  40514-3 0  9991
2 19573  82.5209 220.4021 0011614 162.1112 198.0537 15.26131295  3765
SL-14 R/B               
1 19574U 88093B   25331.15356568  .00000608  00000+0  67359-4 0  9994
2 19574  82.5291 138.2940 0021272  21.4619  68.3874 14.85523947985814
SL-16 R/B               
1 19650U 88102B   25330.63603053  .00000197  00000+0  12387-3 0  9999
2 19650  71.0010   8.3280 0013873 177.4937 182.6258 14.16136131912307
INTERCOSMOS 24          
1 20261U 89080A   25331.01291332  .00000946  00000+0  27396-3 0  9999
2 20261  82.6050 171.1787 1188577 170.9943 191.4731 12.59398802653878
SL-14 R/B               
1 20262U 89080C   25331.14286057  .00000496  00000+0  14129-3 0  9992
2 20262  82.5941 239.0298 1230923  59.2257 312.4216 12.50394484647338
DELTA 1 R/B             
1 20323U 89089B   25330.63632886  .00000442  00000+0  11781-3 0  9999
2 20323  97.0764 189.4250 0070740  88.2256 272.7043 14.50552644880796
