CCSDS_OMM_VERS = 2.0
CREATION_DATE  = 
ORIGINATOR     = 

OBJECT_NAME    = SL-14 R/B
OBJECT_ID      = 1988-001B
CENTER_NAME    = EARTH
REF_FRAME      = TEME
TIME_SYSTEM    = UTC
MEAN_ELEMENT_THEORY = SGP/SGP4

EPOCH          = 2025-11-26T22:45:29.708064
MEAN_MOTION    = 14.85398034
ECCENTRICITY   = .0017095
INCLINATION    = 82.5118
RA_OF_ASC_NODE = 292.0015
ARG_OF_PERICENTER = 214.0150
MEAN_ANOMALY   = 145.9971

EPHEMERIS_TYPE = 0
CLASSIFICATION_TYPE = U
NORAD_CAT_ID   = 18749
ELEMENT_SET_NO = 999
REV_AT_EPOCH   = 2677
BSTAR          = .70793E-4
MEAN_MOTION_DOT = .635E-5
MEAN_MOTION_DDOT = 0

CCSDS_OMM_VERS = 2.0
CREATION_DATE  = 
ORIGINATOR     = 

OBJECT_NAME    = COSMOS 1933
OBJECT_ID      = 1988-020A
CENTER_NAME    = EARTH
REF_FRAME      = TEME
TIME_SYSTEM    = UTC
MEAN_ELEMENT_THEORY = SGP/SGP4

EPOCH          = 2025-11-26T23:42:58.902336
MEAN_MOTION    = 15.16926024
ECCENTRICITY   = .0004366
INCLINATION    = 82.5142
RA_OF_ASC_NODE = 352.4413
ARG_OF_PERICENTER = 174.7193
MEAN_ANOMALY   = 185.4087

EPHEMERIS_TYPE = 0
CLASSIFICATION_TYPE = U
NORAD_CAT_ID   = 18958
ELEMENT_SET_NO = 999
REV_AT_EPOCH   = 3465
BSTAR          = .23253E-3
MEAN_MOTION_DOT = .4614E-4
MEAN_MOTION_DDOT = 0

CCSDS_OMM_VERS = 2.0
CREATION_DATE  = 
ORIGINATOR     = 

OBJECT_NAME    = SL-3 R/B
OBJECT_ID      = 1988-032B
CENTER_NAME    = EARTH
REF_FRAME      = TEME
TIME_SYSTEM    = UTC
MEAN_ELEMENT_THEORY = SGP/SGP4

EPOCH          = 2025-11-27T02:43:25.368384
MEAN_MOTION    = 15.18507534
ECCENTRICITY   = .0025189
INCLINATION    = 97.5072
RA_OF_ASC_NODE = 309.9461
ARG_OF_PERICENTER = 228.9760
MEAN_ANOMALY   = 130.9296

EPHEMERIS_TYPE = 0
CLASSIFICATION_TYPE = U
NORAD_CAT_ID   = 19046
ELEMENT_SET_NO = 999
REV_AT_EPOCH   = 3653
BSTAR          = .28867E-3
MEAN_MOTION_DOT = .5935E-4
MEAN_MOTION_DDOT = 0

CCSDS_OMM_VERS = 2.0
CREATION_DATE  = 
ORIGINATOR     = 

OBJECT_NAME    = SL-16 R/B
OBJECT_ID      = 1988-039B
CENTER_NAME    = EARTH
REF_FRAME      = TEME
TIME_SYSTEM    = UTC
MEAN_ELEMENT_THEORY = SGP/SGP4

EPOCH          = 2025-11-26T07:53:37.738464
MEAN_MOTION    = 14.19592811
ECCENTRICITY   = .00203569
INCLINATION    = 71.0145
RA_OF_ASC_NODE = 287.0970
ARG_OF_PERICENTER = 143.6429
MEAN_ANOMALY   = 216.6084

EPHEMERIS_TYPE = 0
CLASSIFICATION_TYPE = U
NORAD_CAT_ID   = 19120
ELEMENT_SET_NO = 999
REV_AT_EPOCH   = 94371
BSTAR          = .38225624E-4
MEAN_MOTION_DOT = .33E-6
MEAN_MOTION_DDOT = 0

CCSDS_OMM_VERS = 2.0
CREATION_DATE  = 
ORIGINATOR     = 

OBJECT_NAME    = COSMOS 1953
OBJECT_ID      = 1988-050A
CENTER_NAME    = EARTH
REF_FRAME      = TEME
TIME_SYSTEM    = UTC
MEAN_ELEMENT_THEORY = SGP/SGP4

EPOCH          = 2025-11-26T20:15:21.408192
MEAN_MOTION    = 15.26661590
ECCENTRICITY   = .00135584
INCLINATION    = 82.5085
RA_OF_ASC_NODE = 261.5269
ARG_OF_PERICENTER = 119.6716
MEAN_ANOMALY   = 240.5874

EPHEMERIS_TYPE = 0
CLASSIFICATION_TYPE = U
NORAD_CAT_ID   = 19210
ELEMENT_SET_NO = 999
REV_AT_EPOCH   = 2208
BSTAR          = .2523116E-3
MEAN_MOTION_DOT = .6666E-4
MEAN_MOTION_DDOT = 0

CCSDS_OMM_VERS = 2.0
CREATION_DATE  = 
ORIGINATOR     = 

OBJECT_NAME    = SL-8 R/B
OBJECT_ID      = 1988-053B
CENTER_NAME    = EARTH
REF_FRAME      = TEME
TIME_SYSTEM    = UTC
MEAN_ELEMENT_THEORY = SGP/SGP4

EPOCH          = 2025-11-26T10:05:40.380864
MEAN_MOTION    = 14.38844398
ECCENTRICITY   = .00194578
INCLINATION    = 74.0469
RA_OF_ASC_NODE = 302.7968
ARG_OF_PERICENTER = 152.5611
MEAN_ANOMALY   = 324.9684

EPHEMERIS_TYPE = 0
CLASSIFICATION_TYPE = U
NORAD_CAT_ID   = 19257
ELEMENT_SET_NO = 999
REV_AT_EPOCH   = 96174
BSTAR          = .10078736E-3
MEAN_MOTION_DOT = .285E-5
MEAN_MOTION_DDOT = 0

CCSDS_OMM_VERS = 2.0
CREATION_DATE  = 
ORIGINATOR     = 

OBJECT_NAME    = COSMOS 1975
OBJECT_ID      = 1988-093A
CENTER_NAME    = EARTH
REF_FRAME      = TEME
TIME_SYSTEM    = UTC
MEAN_ELEMENT_THEORY = SGP/SGP4

EPOCH          = 2025-11-27T04:15:42.627744
MEAN_MOTION    = 15.26131295
ECCENTRICITY   = .0011614
INCLINATION    = 82.5209
RA_OF_ASC_NODE = 220.4021
ARG_OF_PERICENTER = 162.1112
MEAN_ANOMALY   = 198.0537

EPHEMERIS_TYPE = 0
CLASSIFICATION_TYPE = U
NORAD_CAT_ID   = 19573
ELEMENT_SET_NO = 999
REV_AT_EPOCH   = 376
BSTAR          = .40514E-3
MEAN_MOTION_DOT = .1051E-3
MEAN_MOTION_DDOT = 0

CCSDS_OMM_VERS = 2.0
CREATION_DATE  = 
ORIGINATOR     = 

OBJECT_NAME    = SL-14 R/B
OBJECT_ID      = 1988-093B
CENTER_NAME    = EARTH
REF_FRAME      = TEME
TIME_SYSTEM    = UTC
MEAN_ELEMENT_THEORY = SGP/SGP4

EPOCH          = 2025-11-27T03:41:08.074752
MEAN_MOTION    = 14.85523947
ECCENTRICITY   = .0021272
INCLINATION    = 82.5291
RA_OF_ASC_NODE = 138.2940
ARG_OF_PERICENTER = 21.4619
MEAN_ANOMALY   = 68.3874

EPHEMERIS_TYPE = 0
CLASSIFICATION_TYPE = U
NORAD_CAT_ID   = 19574
ELEMENT_SET_NO = 999
REV_AT_EPOCH   = 98581
BSTAR          = .67359E-4
MEAN_MOTION_DOT = .608E-5
MEAN_MOTION_DDOT = 0

CCSDS_OMM_VERS = 2.0
CREATION_DATE  = 
ORIGINATOR     = 

OBJECT_NAME    = SL-16 R/B
OBJECT_ID      = 1988-102B
CENTER_NAME    = EARTH
REF_FRAME      = TEME
TIME_SYSTEM    = UTC
MEAN_ELEMENT_THEORY = SGP/SGP4

EPOCH          = 2025-11-26T15:15:53.037792
MEAN_MOTION    = 14.16136131
ECCENTRICITY   = .00138731
INCLINATION    = 71.0010
RA_OF_ASC_NODE = 8.3280
ARG_OF_PERICENTER = 177.4937
MEAN_ANOMALY   = 182.6258

EPHEMERIS_TYPE = 0
CLASSIFICATION_TYPE = U
NORAD_CAT_ID   = 19650
ELEMENT_SET_NO = 999
REV_AT_EPOCH   = 91230
BSTAR          = .12386911E-3
MEAN_MOTION_DOT = .197E-5
MEAN_MOTION_DDOT = 0

CCSDS_OMM_VERS = 2.0
CREATION_DATE  = 
ORIGINATOR     = 

OBJECT_NAME    = INTERCOSMOS 24
OBJECT_ID      = 1989-080A
CENTER_NAME    = EARTH
REF_FRAME      = TEME
TIME_SYSTEM    = UTC
MEAN_ELEMENT_THEORY = SGP/SGP4

EPOCH          = 2025-11-27T00:18:35.710848
MEAN_MOTION    = 12.59398802
ECCENTRICITY   = .1188577
INCLINATION    = 82.6050
RA_OF_ASC_NODE = 171.1787
ARG_OF_PERICENTER = 170.9943
MEAN_ANOMALY   = 191.4731

EPHEMERIS_TYPE = 0
CLASSIFICATION_TYPE = U
NORAD_CAT_ID   = 20261
ELEMENT_SET_NO = 999
REV_AT_EPOCH   = 65387
BSTAR          = .27396E-3
MEAN_MOTION_DOT = .946E-5
MEAN_MOTION_DDOT = 0

CCSDS_OMM_VERS = 2.0
CREATION_DATE  = 
ORIGINATOR     = 

OBJECT_NAME    = SL-14 R/B
OBJECT_ID      = 1989-080C
CENTER_NAME    = EARTH
REF_FRAME      = TEME
TIME_SYSTEM    = UTC
MEAN_ELEMENT_THEORY = SGP/SGP4

EPOCH          = 2025-11-27T03:25:43.153248
MEAN_MOTION    = 12.50394484
ECCENTRICITY   = .1230923
INCLINATION    = 82.5941
RA_OF_ASC_NODE = 239.0298
ARG_OF_PERICENTER = 59.2257
MEAN_ANOMALY   = 312.4216

EPHEMERIS_TYPE = 0
CLASSIFICATION_TYPE = U
NORAD_CAT_ID   = 20262
ELEMENT_SET_NO = 999
REV_AT_EPOCH   = 64733
BSTAR          = .14129E-3
MEAN_MOTION_DOT = .496E-5
MEAN_MOTION_DDOT = 0

CCSDS_OMM_VERS = 2.0
CREATION_DATE  = 
ORIGINATOR     = 

OBJECT_NAME    = DELTA 1 R/B
OBJECT_ID      = 1989-089B
CENTER_NAME    = EARTH
REF_FRAME      = TEME
TIME_SYSTEM    = UTC
MEAN_ELEMENT_THEORY = SGP/SGP4

EPOCH          = 2025-11-26T15:16:18.813504
MEAN_MOTION    = 14.50552644
ECCENTRICITY   = .00707405
INCLINATION    = 97.0764
RA_OF_ASC_NODE = 189.4250
ARG_OF_PERICENTER = 88.2256
MEAN_ANOMALY   = 272.7043

EPHEMERIS_TYPE = 0
CLASSIFICATION_TYPE = U
NORAD_CAT_ID   = 20323
ELEMENT_SET_NO = 999
REV_AT_EPOCH   = 88079
BSTAR          = .1178053E-3
MEAN_MOTION_DOT = .442E-5
MEAN_MOTION_DDOT = 0

